FLOCK 4G-18             
1 62680U 25009BZ  26068.19114186  .00011766  00000+0  44319-3 0  9995
2 62680  97.4054 150.5008 0004100 335.7331  24.3715 15.27241676121267
STARLINK-33878          
1 63862U 25093AC  26068.38448605  .00035565  00000+0  12942-2 0  9997
2 63862  43.0010  79.7369 0002047 248.7510 111.3123 15.27618604 47919
